[{"OBJECT_NAME":"EXO-0","OBJECT_ID":"2023-174DK","EPOCH":"2026-03-09T17:03:04.419648","MEAN_MOTION":15.32821991,"ECCENTRICITY":0.00098779,"INCLINATION":97.3864,"RA_OF_ASC_NODE":148.9039,"ARG_OF_PERICENTER":157.1125,"MEAN_ANOMALY":203.0559,"EPHEMERIS_TYPE":0,"CLASSIFICATION_TYPE":"U","NORAD_CAT_ID":59175,"ELEMENT_SET_NO":999,"REV_AT_EPOCH":12979,"BSTAR":0.00036716083,"MEAN_MOTION_DOT":0.00011582,"MEAN_MOTION_DDOT":0},{"OBJECT_NAME":"STARLINK-36155","OBJECT_ID":"2025-286P","EPOCH":"2026-03-09T22:41:26.860992","MEAN_MOTION":15.30215386,"ECCENTRICITY":0.00011913,"INCLINATION":53.1617,"RA_OF_ASC_NODE":357.4215,"ARG_OF_PERICENTER":117.9183,"MEAN_ANOMALY":242.1938,"EPHEMERIS_TYPE":0,"CLASSIFICATION_TYPE":"U","NORAD_CAT_ID":66938,"ELEMENT_SET_NO":999,"REV_AT_EPOCH":1545,"BSTAR":0.0011487825,"MEAN_MOTION_DOT":0.00033836,"MEAN_MOTION_DDOT":0}]
